OBJECT_NAME,OBJECT_ID,EPOCH,MEAN_MOTION,ECCENTRICITY,INCLINATION,RA_OF_ASC_NODE,ARG_OF_PERICENTER,MEAN_ANOMALY,EPHEMERIS_TYPE,CLASSIFICATION_TYPE,NORAD_CAT_ID,ELEMENT_SET_NO,REV_AT_EPOCH,BSTAR,MEAN_MOTION_DOT,MEAN_MOTION_DDOT
INTELSAT 23 (IS-23),2012-057A,2026-07-16T13:06:38.686176,1.00263028,.00007032,0.0210,309.6194,307.1069,181.3059,0,U,38867,999,5024,0,-.295E-5,0
BEIDOU-2 G6,2012-059A,2026-07-16T15:31:01.817184,1.00273451,.00087187,4.4937,73.1999,327.2067,210.8192,0,U,38953,999,5020,0,-.188E-5,0
LUCH-5B,2012-061A,2026-07-16T09:49:13.642752,1.00270317,.00039024,10.5455,49.5874,147.8144,227.8647,0,U,38977,999,4990,0,-.152E-5,0
YAMAL 300K,2012-061B,2026-07-16T14:11:25.143936,1.00266901,.00005647,0.0151,59.0866,189.9052,81.2316,0,U,38978,999,4992,0,0,0
STAR ONE C3,2012-062A,2026-07-16T12:57:57.073824,1.00273068,.00021832,0.0178,40.7707,82.8112,290.2755,0,U,38991,999,5005,0,-.26E-5,0
EUTELSAT 21B,2012-062B,2026-07-16T13:25:24.441024,1.00270920,.00032346,0.0679,15.8692,106.7634,34.6639,0,U,38992,999,5012,0,.119E-5,0
ECHOSTAR 16,2012-065A,2026-07-16T11:35:38.672736,1.00270368,.00021177,0.0175,53.7710,59.9233,293.0264,0,U,39008,999,4993,0,-.292E-5,0
ZHONGXING-12,2012-067A,2026-07-16T15:12:21.841632,1.00271307,.00025878,0.0375,94.3422,20.4862,135.2193,0,U,39017,999,4980,0,-.217E-5,0
EUTELSAT 70B,2012-069A,2026-07-16T13:39:26.517888,1.00271500,.00036204,0.0610,3.9702,110.7794,95.0012,0,U,39020,999,4980,0,-.54E-6,0
YAMAL 402,2012-070A,2026-07-16T13:35:01.020192,1.00271998,.00036167,1.3383,83.7907,27.3416,81.9038,0,U,39022,999,4969,0,.75E-6,0
SKYNET 5D,2012-075A,2026-07-16T13:34:23.579616,1.00270818,.00034433,0.0682,1.1309,123.1616,66.4387,0,U,39034,999,4945,0,.89E-6,0
MEXSAT 3,2012-075B,2026-07-16T14:29:15.933696,1.00268938,.00011108,0.0216,64.9133,43.9467,288.1083,0,U,39035,999,734,0,0,0
TDRS 11,2013-004A,2026-07-16T14:14:38.802624,1.00279919,.00044537,3.5636,31.7160,32.3291,269.9339,0,U,39070,999,4698,0,.7E-6,0
AMAZONAS 3,2013-006A,2026-07-16T13:01:49.202976,1.00271849,.00033178,0.0088,243.6586,268.5331,276.6335,0,U,39078,999,4520,0,-.293E-5,0
AZERSPACE 1,2013-006B,2026-07-16T13:32:23.771328,1.00270964,.00018138,0.0173,30.7669,118.6222,34.0754,0,U,39079,999,4910,0,.123E-5,0
SBIRS GEO-2 (USA 241),2013-011A,2026-07-16T13:05:03.892416,1.00271538,.00019904,4.5508,52.5047,57.4342,330.9041,0,U,39120,999,4883,0,-.299E-5,0
EUTELSAT 117 WEST A,2013-012A,2026-07-16T14:28:31.005696,1.00270382,.00027088,0.0473,272.0974,202.9403,279.7201,0,U,39122,999,4872,0,-.23E-6,0
ANIK G1,2013-014A,2026-07-16T14:31:23.231136,1.00271573,.00017254,0.0452,234.0475,251.4195,279.5042,0,U,39127,999,4854,0,-.84E-6,0
ZHONGXING-11,2013-020A,2026-07-16T16:21:56.581632,1.00269080,.00019322,0.0547,276.0136,168.7029,193.1522,0,U,39157,999,4819,0,-.3E-5,0
EUTELSAT 7B,2013-022A,2026-07-16T13:21:17.336160,1.00269713,.00032793,0.0690,340.4511,66.0688,95.1866,0,U,39163,999,4824,0,.37E-6,0
WGS F5 (USA 243),2013-024A,2026-07-16T13:04:18.962688,1.00267560,.00001881,0.0226,66.5985,212.3590,159.0053,0,U,39168,999,4746,0,0,0
SES-6,2013-026A,2026-07-16T11:25:03.493632,1.00272598,.00025837,0.0208,344.3781,111.3919,329.2999,0,U,39172,999,4801,0,-.272E-5,0
IRNSS-1A,2013-034A,2026-07-10T17:17:25.712736,1.00281941,.0017567,35.7704,63.5328,183.4462,356.2994,0,U,39199,999,4760,0,.47E-6,0
MUOS-2,2013-036A,2026-07-16T11:09:35.117856,1.00272609,.00527961,5.0518,45.5539,176.3666,51.7287,0,U,39206,999,4748,0,-.25E-6,0
ALPHASAT,2013-038A,2026-07-16T13:26:24.345600,1.00270334,.00021894,2.9998,1.1440,136.1958,23.5151,0,U,39215,999,4431,0,.123E-5,0
INSAT-3D,2013-038B,2026-07-16T10:30:55.872288,1.00268001,.0000536,1.9997,82.1690,76.4436,62.8721,0,U,39216,999,4737,0,-.351E-5,0
WGS F6 (USA 244),2013-041A,2026-07-16T12:40:43.723776,1.00270172,.00001811,0.0181,45.5525,88.0791,215.7111,0,U,39222,999,4635,0,.78E-6,0
ES'HAIL 1,2013-044A,2026-07-16T13:26:31.833888,1.00268694,.00022058,0.0492,349.3207,117.2376,54.9710,0,U,39233,999,4692,0,.132E-5,0
GSAT-7,2013-044B,2026-07-16T13:40:18.935040,1.00271496,.00031616,0.1546,89.5112,176.5447,307.3715,0,U,39234,999,4555,0,-.87E-6,0
AMOS-4,2013-045A,2026-07-16T11:55:08.109696,1.00270889,.00021376,0.0234,251.9430,193.1373,93.0259,0,U,39237,999,4725,0,-.3E-7,0
AEHF-3 (USA 246),2013-050A,2026-07-16T12:13:38.684928,1.00271368,.00885164,5.3636,66.9136,187.6917,98.8670,0,U,39256,999,4594,0,.16E-6,0
ASTRA 2E,2013-056A,2026-07-16T13:27:24.250176,1.00269625,.00026456,0.0744,315.2236,154.2997,55.1859,0,U,39285,999,4671,0,.14E-5,0
