INTELSAT 23 (IS-23)     
1 38867U 12057A   26197.54628109 -.00000295  00000+0  00000+0 0  9992
2 38867   0.0210 309.6194 0000703 307.1069 181.3059  1.00263028 50245
BEIDOU-2 G6             
1 38953U 12059A   26197.64654881 -.00000188  00000+0  00000+0 0  9998
2 38953   4.4937  73.1999 0008718 327.2067 210.8192  1.00273451 50209
LUCH-5B                 
1 38977U 12061A   26197.40918568 -.00000152  00000+0  00000+0 0  9997
2 38977  10.5455  49.5874 0003902 147.8144 227.8647  1.00270317 49905
YAMAL 300K              
1 38978U 12061B   26197.59126324  .00000000  00000+0  00000+0 0  9990
2 38978   0.0151  59.0866 0000564 189.9052  81.2316  1.00266901 49927
STAR ONE C3             
1 38991U 12062A   26197.54024391 -.00000260  00000+0  00000+0 0  9991
2 38991   0.0178  40.7707 0002183  82.8112 290.2755  1.00273068 50056
EUTELSAT 21B            
1 38992U 12062B   26197.55931066  .00000119  00000+0  00000+0 0  9991
2 38992   0.0679  15.8692 0003234 106.7634  34.6639  1.00270920 50125
ECHOSTAR 16             
1 39008U 12065A   26197.48308649 -.00000292  00000+0  00000+0 0  9993
2 39008   0.0175  53.7710 0002117  59.9233 293.0264  1.00270368 49938
ZHONGXING-12            
1 39017U 12067A   26197.63358613 -.00000217  00000+0  00000+0 0  9995
2 39017   0.0375  94.3422 0002587  20.4862 135.2193  1.00271307 49801
EUTELSAT 70B            
1 39020U 12069A   26197.56905692 -.00000054  00000+0  00000+0 0  9997
2 39020   0.0610   3.9702 0003620 110.7794  95.0012  1.00271500 49808
YAMAL 402               
1 39022U 12070A   26197.56598403  .00000075  00000+0  00000+0 0  9991
2 39022   1.3383  83.7907 0003616  27.3416  81.9038  1.00271998 49693
SKYNET 5D               
1 39034U 12075A   26197.56555069  .00000089  00000+0  00000+0 0  9995
2 39034   0.0682   1.1309 0003443 123.1616  66.4387  1.00270818 49458
MEXSAT 3                
1 39035U 12075B   26197.60365664  .00000000  00000+0  00000+0 0  9994
2 39035   0.0216  64.9133 0001110  43.9467 288.1083  1.00268938  7344
TDRS 11                 
1 39070U 13004A   26197.59350466  .00000070  00000+0  00000+0 0  9995
2 39070   3.5636  31.7160 0004453  32.3291 269.9339  1.00279919 46984
AMAZONAS 3              
1 39078U 13006A   26197.54293059 -.00000293  00000+0  00000+0 0  9992
2 39078   0.0088 243.6586 0003317 268.5331 276.6335  1.00271849 45206
AZERSPACE 1             
1 39079U 13006B   26197.56416402  .00000123  00000+0  00000+0 0  9995
2 39079   0.0173  30.7669 0001813 118.6222  34.0754  1.00270964 49103
SBIRS GEO-2 (USA 241)   
1 39120U 13011A   26197.54518394 -.00000299  00000+0  00000+0 0  9994
2 39120   4.5508  52.5047 0001990  57.4342 330.9041  1.00271538 48836
EUTELSAT 117 WEST A     
1 39122U 13012A   26197.60313664 -.00000023  00000+0  00000+0 0  9992
2 39122   0.0473 272.0974 0002708 202.9403 279.7201  1.00270382 48723
ANIK G1                 
1 39127U 13014A   26197.60512999 -.00000084  00000+0  00000+0 0  9998
2 39127   0.0452 234.0475 0001725 251.4195 279.5042  1.00271573 48548
ZHONGXING-11            
1 39157U 13020A   26197.68190488 -.00000300  00000+0  00000+0 0  9992
2 39157   0.0547 276.0136 0001932 168.7029 193.1522  1.00269080 48197
EUTELSAT 7B             
1 39163U 13022A   26197.55645065  .00000037  00000+0  00000+0 0  9999
2 39163   0.0690 340.4511 0003279  66.0688  95.1866  1.00269713 48244
WGS F5 (USA 243)        
1 39168U 13024A   26197.54466392  .00000000  00000+0  00000+0 0  9999
2 39168   0.0226  66.5985 0000188 212.3590 159.0053  1.00267560 47468
SES-6                   
1 39172U 13026A   26197.47573488 -.00000272  00000+0  00000+0 0  9995
2 39172   0.0208 344.3781 0002583 111.3919 329.2999  1.00272598 48017
IRNSS-1A                
1 39199U 13034A   26191.72043649  .00000047  00000+0  00000+0 0  9995
2 39199  35.7704  63.5328 0017567 183.4462 356.2994  1.00281941 47601
MUOS-2                  
1 39206U 13036A   26197.46498979 -.00000025  00000+0  00000+0 0  9990
2 39206   5.0518  45.5539 0052796 176.3666  51.7287  1.00272609 47486
ALPHASAT                
1 39215U 13038A   26197.56000400  .00000123  00000+0  00000+0 0  9999
2 39215   2.9998   1.1440 0002189 136.1958  23.5151  1.00270334 44311
INSAT-3D                
1 39216U 13038B   26197.43814667 -.00000351  00000+0  00000+0 0  9998
2 39216   1.9997  82.1690 0000536  76.4436  62.8721  1.00268001 47373
WGS F6 (USA 244)        
1 39222U 13041A   26197.52828384  .00000078  00000+0  00000+0 0  9995
2 39222   0.0181  45.5525 0000181  88.0791 215.7111  1.00270172 46355
ES'HAIL 1               
1 39233U 13044A   26197.56009067  .00000132  00000+0  00000+0 0  9994
2 39233   0.0492 349.3207 0002205 117.2376  54.9710  1.00268694 46924
GSAT-7                  
1 39234U 13044B   26197.56966360 -.00000087  00000+0  00000+0 0  9993
2 39234   0.1546  89.5112 0003161 176.5447 307.3715  1.00271496 45555
AMOS-4                  
1 39237U 13045A   26197.49662164 -.00000003  00000+0  00000+0 0  9992
2 39237   0.0234 251.9430 0002137 193.1373  93.0259  1.00270889 47250
AEHF-3 (USA 246)        
1 39256U 13050A   26197.50947552  .00000016  00000+0  00000+0 0  9991
2 39256   5.3636  66.9136 0088516 187.6917  98.8670  1.00271368 45946
ASTRA 2E                
1 39285U 13056A   26197.56069734  .00000140  00000+0  00000+0 0  9990
2 39285   0.0744 315.2236 0002645 154.2997  55.1859  1.00269625 46712
